{"type": "FeatureCollection", "features": [{"type": "Feature", "geometry": {"type": "Point", "coordinates": [-17.10417, 32.62889]}, "properties": {"date": "1801-08-06", "navire": "l'Investigator", "expedition": "Flinders", "table": "Matthew Flinders, A Voyage to Terra Australis, Londres, 1814, vol. 1", "alerte": "position tirée du récit publié ; Flinders ne la donne pas tous les jours"}}, {"type": "Feature", "geometry": {"type": "Point", "coordinates": [-29.21667, -20.01667]}, "properties": {"date": "1801-09-20", "navire": "l'Investigator", "expedition": "Flinders", "table": "Matthew Flinders, A Voyage to Terra Australis, Londres, 1814, vol. 1", "alerte": "position tirée du récit publié ; Flinders ne la donne pas tous les jours"}}, {"type": "Feature", "geometry": {"type": "Point", "coordinates": [-26.0, -31.03333]}, "properties": {"date": "1801-09-29", "navire": "l'Investigator", "expedition": "Flinders", "table": "Matthew Flinders, A Voyage to Terra Australis, Londres, 1814, vol. 1", "alerte": "position tirée du récit publié ; Flinders ne la donne pas tous les jours"}}, {"type": "Feature", "geometry": {"type": "Point", "coordinates": [12.83333, -35.06667]}, "properties": {"date": "1801-10-14", "navire": "l'Investigator", "expedition": "Flinders", "table": "Matthew Flinders, A Voyage to Terra Australis, Londres, 1814, vol. 1", "alerte": "position tirée du récit publié ; Flinders ne la donne pas tous les jours"}}, {"type": "Feature", "geometry": {"type": "Point", "coordinates": [76.43333, -38.33333]}, "properties": {"date": "1801-11-24", "navire": "l'Investigator", "expedition": "Flinders", "table": "Matthew Flinders, A Voyage to Terra Australis, Londres, 1814, vol. 1", "alerte": "position tirée du récit publié ; Flinders ne la donne pas tous les jours"}}, {"type": "Feature", "geometry": {"type": "Point", "coordinates": [114.31667, -35.16667]}, "properties": {"date": "1801-12-06", "navire": "l'Investigator", "expedition": "Flinders", "table": "Matthew Flinders, A Voyage to Terra Australis, Londres, 1814, vol. 1", "alerte": "position tirée du récit publié ; Flinders ne la donne pas tous les jours"}}, {"type": "Feature", "geometry": {"type": "Point", "coordinates": [115.5, -34.53333]}, "properties": {"date": "1801-12-07", "navire": "l'Investigator", "expedition": "Flinders", "table": "Matthew Flinders, A Voyage to Terra Australis, Londres, 1814, vol. 1", "alerte": "position tirée du récit publié ; Flinders ne la donne pas tous les jours"}}, {"type": "Feature", "geometry": {"type": "Point", "coordinates": [119.25, -34.59056]}, "properties": {"date": "1802-01-06", "navire": "l'Investigator", "expedition": "Flinders", "table": "Matthew Flinders, A Voyage to Terra Australis, Londres, 1814, vol. 1", "alerte": "position tirée du récit publié ; Flinders ne la donne pas tous les jours"}}, {"type": "Feature", "geometry": {"type": "Point", "coordinates": [119.78333, -34.27778]}, "properties": {"date": "1802-01-07", "navire": "l'Investigator", "expedition": "Flinders", "table": "Matthew Flinders, A Voyage to Terra Australis, Londres, 1814, vol. 1", "alerte": "position tirée du récit publié ; Flinders ne la donne pas tous les jours"}}, {"type": "Feature", "geometry": {"type": "Point", "coordinates": [121.81667, -35.00694]}, "properties": {"date": "1802-01-09", "navire": "l'Investigator", "expedition": "Flinders", "table": "Matthew Flinders, A Voyage to Terra Australis, Londres, 1814, vol. 1", "alerte": "position tirée du récit publié ; Flinders ne la donne pas tous les jours"}}, {"type": "Feature", "geometry": {"type": "Point", "coordinates": [122.6, -34.03333]}, "properties": {"date": "1802-01-14", "navire": "l'Investigator", "expedition": "Flinders", "table": "Matthew Flinders, A Voyage to Terra Australis, Londres, 1814, vol. 1", "alerte": "position tirée du récit publié ; Flinders ne la donne pas tous les jours"}}, {"type": "Feature", "geometry": {"type": "Point", "coordinates": [123.91667, -33.91528]}, "properties": {"date": "1802-01-17", "navire": "l'Investigator", "expedition": "Flinders", "table": "Matthew Flinders, A Voyage to Terra Australis, Londres, 1814, vol. 1", "alerte": "position tirée du récit publié ; Flinders ne la donne pas tous les jours"}}, {"type": "Feature", "geometry": {"type": "Point", "coordinates": [124.96667, -32.88083]}, "properties": {"date": "1802-01-18", "navire": "l'Investigator", "expedition": "Flinders", "table": "Matthew Flinders, A Voyage to Terra Australis, Londres, 1814, vol. 1", "alerte": "position tirée du récit publié ; Flinders ne la donne pas tous les jours"}}, {"type": "Feature", "geometry": {"type": "Point", "coordinates": [127.03333, -32.375]}, "properties": {"date": "1802-01-23", "navire": "l'Investigator", "expedition": "Flinders", "table": "Matthew Flinders, A Voyage to Terra Australis, Londres, 1814, vol. 1", "alerte": "position tirée du récit publié ; Flinders ne la donne pas tous les jours"}}, {"type": "Feature", "geometry": {"type": "Point", "coordinates": [128.68333, -31.85944]}, "properties": {"date": "1802-01-26", "navire": "l'Investigator", "expedition": "Flinders", "table": "Matthew Flinders, A Voyage to Terra Australis, Londres, 1814, vol. 1", "alerte": "position tirée du récit publié ; Flinders ne la donne pas tous les jours"}}, {"type": "Feature", "geometry": {"type": "Point", "coordinates": [131.85, -32.04167]}, "properties": {"date": "1802-01-28", "navire": "l'Investigator", "expedition": "Flinders", "table": "Matthew Flinders, A Voyage to Terra Australis, Londres, 1814, vol. 1", "alerte": "position tirée du récit publié ; Flinders ne la donne pas tous les jours"}}, {"type": "Feature", "geometry": {"type": "Point", "coordinates": [134.63333, -33.99167]}, "properties": {"date": "1802-02-15", "navire": "l'Investigator", "expedition": "Flinders", "table": "Matthew Flinders, A Voyage to Terra Australis, Londres, 1814, vol. 1", "alerte": "position tirée du récit publié ; Flinders ne la donne pas tous les jours"}}, {"type": "Feature", "geometry": {"type": "Point", "coordinates": [135.05, -34.72556]}, "properties": {"date": "1802-02-17", "navire": "l'Investigator", "expedition": "Flinders", "table": "Matthew Flinders, A Voyage to Terra Australis, Londres, 1814, vol. 1", "alerte": "position tirée du récit publié ; Flinders ne la donne pas tous les jours"}}, {"type": "Feature", "geometry": {"type": "Point", "coordinates": [135.73333, -35.0425]}, "properties": {"date": "1802-02-20", "navire": "l'Investigator", "expedition": "Flinders", "table": "Matthew Flinders, A Voyage to Terra Australis, Londres, 1814, vol. 1", "alerte": "position tirée du récit publié ; Flinders ne la donne pas tous les jours"}}, {"type": "Feature", "geometry": {"type": "Point", "coordinates": [137.68333, -33.08722]}, "properties": {"date": "1802-03-09", "navire": "l'Investigator", "expedition": "Flinders", "table": "Matthew Flinders, A Voyage to Terra Australis, Londres, 1814, vol. 1", "alerte": "position tirée du récit publié ; Flinders ne la donne pas tous les jours"}}, {"type": "Feature", "geometry": {"type": "Point", "coordinates": [137.78333, -33.39694]}, "properties": {"date": "1802-03-14", "navire": "l'Investigator", "expedition": "Flinders", "table": "Matthew Flinders, A Voyage to Terra Australis, Londres, 1814, vol. 1", "alerte": "position tirée du récit publié ; Flinders ne la donne pas tous les jours"}}, {"type": "Feature", "geometry": {"type": "Point", "coordinates": [137.40833, -34.25667]}, "properties": {"date": "1802-03-17", "navire": "l'Investigator", "expedition": "Flinders", "table": "Matthew Flinders, A Voyage to Terra Australis, Londres, 1814, vol. 1", "alerte": "position tirée du récit publié ; Flinders ne la donne pas tous les jours"}}, {"type": "Feature", "geometry": {"type": "Point", "coordinates": [137.7, -35.52722]}, "properties": {"date": "1802-03-27", "navire": "l'Investigator", "expedition": "Flinders", "table": "Matthew Flinders, A Voyage to Terra Australis, Londres, 1814, vol. 1", "alerte": "position tirée du récit publié ; Flinders ne la donne pas tous les jours"}}, {"type": "Feature", "geometry": {"type": "Point", "coordinates": [138.38333, -35.07028]}, "properties": {"date": "1802-03-28", "navire": "l'Investigator", "expedition": "Flinders", "table": "Matthew Flinders, A Voyage to Terra Australis, Londres, 1814, vol. 1", "alerte": "position tirée du récit publié ; Flinders ne la donne pas tous les jours"}}, {"type": "Feature", "geometry": {"type": "Point", "coordinates": [138.3, -34.6]}, "properties": {"date": "1802-03-29", "navire": "l'Investigator", "expedition": "Flinders", "table": "Matthew Flinders, A Voyage to Terra Australis, Londres, 1814, vol. 1", "alerte": "position tirée du récit publié ; Flinders ne la donne pas tous les jours"}}, {"type": "Feature", "geometry": {"type": "Point", "coordinates": [138.075, -35.16056]}, "properties": {"date": "1802-04-01", "navire": "l'Investigator", "expedition": "Flinders", "table": "Matthew Flinders, A Voyage to Terra Australis, Londres, 1814, vol. 1", "alerte": "position tirée du récit publié ; Flinders ne la donne pas tous les jours"}}, {"type": "Feature", "geometry": {"type": "Point", "coordinates": [138.88333, -35.73333]}, "properties": {"date": "1802-04-09", "navire": "l'Investigator", "expedition": "Flinders", "table": "Matthew Flinders, A Voyage to Terra Australis, Londres, 1814, vol. 1", "alerte": "position tirée du récit publié ; Flinders ne la donne pas tous les jours"}}, {"type": "Feature", "geometry": {"type": "Point", "coordinates": [139.68333, -37.12083]}, "properties": {"date": "1802-04-13", "navire": "l'Investigator", "expedition": "Flinders", "table": "Matthew Flinders, A Voyage to Terra Australis, Londres, 1814, vol. 1", "alerte": "position tirée du récit publié ; Flinders ne la donne pas tous les jours"}}, {"type": "Feature", "geometry": {"type": "Point", "coordinates": [139.83333, -37.39167]}, "properties": {"date": "1802-04-15", "navire": "l'Investigator", "expedition": "Flinders", "table": "Matthew Flinders, A Voyage to Terra Australis, Londres, 1814, vol. 1", "alerte": "position tirée du récit publié ; Flinders ne la donne pas tous les jours"}}, {"type": "Feature", "geometry": {"type": "Point", "coordinates": [140.275, -37.79167]}, "properties": {"date": "1802-04-17", "navire": "l'Investigator", "expedition": "Flinders", "table": "Matthew Flinders, A Voyage to Terra Australis, Londres, 1814, vol. 1", "alerte": "position tirée du récit publié ; Flinders ne la donne pas tous les jours"}}, {"type": "Feature", "geometry": {"type": "Point", "coordinates": [144.36667, -39.175]}, "properties": {"date": "1802-04-21", "navire": "l'Investigator", "expedition": "Flinders", "table": "Matthew Flinders, A Voyage to Terra Australis, Londres, 1814, vol. 1", "alerte": "position tirée du récit publié ; Flinders ne la donne pas tous les jours"}}, {"type": "Feature", "geometry": {"type": "Point", "coordinates": [144.26667, -39.52083]}, "properties": {"date": "1802-04-22", "navire": "l'Investigator", "expedition": "Flinders", "table": "Matthew Flinders, A Voyage to Terra Australis, Londres, 1814, vol. 1", "alerte": "position tirée du récit publié ; Flinders ne la donne pas tous les jours"}}, {"type": "Feature", "geometry": {"type": "Point", "coordinates": [144.525, -38.36667]}, "properties": {"date": "1802-04-26", "navire": "l'Investigator", "expedition": "Flinders", "table": "Matthew Flinders, A Voyage to Terra Australis, Londres, 1814, vol. 1", "alerte": "position tirée du récit publié ; Flinders ne la donne pas tous les jours"}}, {"type": "Feature", "geometry": {"type": "Point", "coordinates": [146.5, -39.58333]}, "properties": {"date": "1802-05-04", "navire": "l'Investigator", "expedition": "Flinders", "table": "Matthew Flinders, A Voyage to Terra Australis, Londres, 1814, vol. 1", "alerte": "position tirée du récit publié ; Flinders ne la donne pas tous les jours"}}, {"type": "Feature", "geometry": {"type": "Point", "coordinates": [149.58333, -38.53333]}, "properties": {"date": "1802-05-05", "navire": "l'Investigator", "expedition": "Flinders", "table": "Matthew Flinders, A Voyage to Terra Australis, Londres, 1814, vol. 1", "alerte": "position tirée du récit publié ; Flinders ne la donne pas tous les jours"}}, {"type": "Feature", "geometry": {"type": "Point", "coordinates": [153.10833, -30.97083]}, "properties": {"date": "1802-07-24", "navire": "l'Investigator", "expedition": "Flinders", "table": "Matthew Flinders, A Voyage to Terra Australis, Londres, 1814, vol. 2", "alerte": "position tirée du récit publié ; Flinders ne la donne pas tous les jours"}}, {"type": "Feature", "geometry": {"type": "Point", "coordinates": [153.51667, -29.06667]}, "properties": {"date": "1802-07-25", "navire": "l'Investigator", "expedition": "Flinders", "table": "Matthew Flinders, A Voyage to Terra Australis, Londres, 1814, vol. 2", "alerte": "position tirée du récit publié ; Flinders ne la donne pas tous les jours"}}, {"type": "Feature", "geometry": {"type": "Point", "coordinates": [151.66667, -23.8]}, "properties": {"date": "1802-08-04", "navire": "l'Investigator", "expedition": "Flinders", "table": "Matthew Flinders, A Voyage to Terra Australis, Londres, 1814, vol. 2", "alerte": "position tirée du récit publié ; Flinders ne la donne pas tous les jours"}}, {"type": "Feature", "geometry": {"type": "Point", "coordinates": [150.7, -22.345]}, "properties": {"date": "1802-08-25", "navire": "l'Investigator", "expedition": "Flinders", "table": "Matthew Flinders, A Voyage to Terra Australis, Londres, 1814, vol. 2", "alerte": "position tirée du récit publié ; Flinders ne la donne pas tous les jours"}}, {"type": "Feature", "geometry": {"type": "Point", "coordinates": [150.31667, -21.06667]}, "properties": {"date": "1802-10-05", "navire": "l'Investigator", "expedition": "Flinders", "table": "Matthew Flinders, A Voyage to Terra Australis, Londres, 1814, vol. 2", "alerte": "position tirée du récit publié ; Flinders ne la donne pas tous les jours"}}, {"type": "Feature", "geometry": {"type": "Point", "coordinates": [150.7, -20.88611]}, "properties": {"date": "1802-10-12", "navire": "l'Investigator", "expedition": "Flinders", "table": "Matthew Flinders, A Voyage to Terra Australis, Londres, 1814, vol. 2", "alerte": "position tirée du récit publié ; Flinders ne la donne pas tous les jours"}}, {"type": "Feature", "geometry": {"type": "Point", "coordinates": [150.18333, -21.03333]}, "properties": {"date": "1802-10-14", "navire": "l'Investigator", "expedition": "Flinders", "table": "Matthew Flinders, A Voyage to Terra Australis, Londres, 1814, vol. 2", "alerte": "position tirée du récit publié ; Flinders ne la donne pas tous les jours"}}, {"type": "Feature", "geometry": {"type": "Point", "coordinates": [149.55417, -20.39889]}, "properties": {"date": "1802-10-17", "navire": "l'Investigator", "expedition": "Flinders", "table": "Matthew Flinders, A Voyage to Terra Australis, Londres, 1814, vol. 2", "alerte": "position tirée du récit publié ; Flinders ne la donne pas tous les jours"}}, {"type": "Feature", "geometry": {"type": "Point", "coordinates": [148.79167, -19.5875]}, "properties": {"date": "1802-10-19", "navire": "l'Investigator", "expedition": "Flinders", "table": "Matthew Flinders, A Voyage to Terra Australis, Londres, 1814, vol. 2", "alerte": "position tirée du récit publié ; Flinders ne la donne pas tous les jours"}}, {"type": "Feature", "geometry": {"type": "Point", "coordinates": [148.61667, -17.9]}, "properties": {"date": "1802-10-21", "navire": "l'Investigator", "expedition": "Flinders", "table": "Matthew Flinders, A Voyage to Terra Australis, Londres, 1814, vol. 2", "alerte": "position tirée du récit publié ; Flinders ne la donne pas tous les jours"}}, {"type": "Feature", "geometry": {"type": "Point", "coordinates": [148.71667, -16.65]}, "properties": {"date": "1802-10-22", "navire": "l'Investigator", "expedition": "Flinders", "table": "Matthew Flinders, A Voyage to Terra Australis, Londres, 1814, vol. 2", "alerte": "position tirée du récit publié ; Flinders ne la donne pas tous les jours"}}, {"type": "Feature", "geometry": {"type": "Point", "coordinates": [147.38333, -12.91667]}, "properties": {"date": "1802-10-25", "navire": "l'Investigator", "expedition": "Flinders", "table": "Matthew Flinders, A Voyage to Terra Australis, Londres, 1814, vol. 2", "alerte": "position tirée du récit publié ; Flinders ne la donne pas tous les jours"}}, {"type": "Feature", "geometry": {"type": "Point", "coordinates": [145.75833, -9.86]}, "properties": {"date": "1802-10-28", "navire": "l'Investigator", "expedition": "Flinders", "table": "Matthew Flinders, A Voyage to Terra Australis, Londres, 1814, vol. 2", "alerte": "position tirée du récit publié ; Flinders ne la donne pas tous les jours"}}, {"type": "Feature", "geometry": {"type": "Point", "coordinates": [143.7, -9.89167]}, "properties": {"date": "1802-10-30", "navire": "l'Investigator", "expedition": "Flinders", "table": "Matthew Flinders, A Voyage to Terra Australis, Londres, 1814, vol. 2", "alerte": "position tirée du récit publié ; Flinders ne la donne pas tous les jours"}}, {"type": "Feature", "geometry": {"type": "Point", "coordinates": [142.65833, -10.44583]}, "properties": {"date": "1802-10-31", "navire": "l'Investigator", "expedition": "Flinders", "table": "Matthew Flinders, A Voyage to Terra Australis, Londres, 1814, vol. 2", "alerte": "position tirée du récit publié ; Flinders ne la donne pas tous les jours"}}, {"type": "Feature", "geometry": {"type": "Point", "coordinates": [141.83333, -11.93333]}, "properties": {"date": "1802-11-06", "navire": "l'Investigator", "expedition": "Flinders", "table": "Matthew Flinders, A Voyage to Terra Australis, Londres, 1814, vol. 2", "alerte": "position tirée du récit publié ; Flinders ne la donne pas tous les jours"}}, {"type": "Feature", "geometry": {"type": "Point", "coordinates": [141.55, -14.85139]}, "properties": {"date": "1802-11-11", "navire": "l'Investigator", "expedition": "Flinders", "table": "Matthew Flinders, A Voyage to Terra Australis, Londres, 1814, vol. 2", "alerte": "position tirée du récit publié ; Flinders ne la donne pas tous les jours"}}, {"type": "Feature", "geometry": {"type": "Point", "coordinates": [141.24167, -16.40806]}, "properties": {"date": "1802-11-13", "navire": "l'Investigator", "expedition": "Flinders", "table": "Matthew Flinders, A Voyage to Terra Australis, Londres, 1814, vol. 2", "alerte": "position tirée du récit publié ; Flinders ne la donne pas tous les jours"}}, {"type": "Feature", "geometry": {"type": "Point", "coordinates": [139.41667, -16.43333]}, "properties": {"date": "1802-12-07", "navire": "l'Investigator", "expedition": "Flinders", "table": "Matthew Flinders, A Voyage to Terra Australis, Londres, 1814, vol. 2", "alerte": "position tirée du récit publié ; Flinders ne la donne pas tous les jours"}}, {"type": "Feature", "geometry": {"type": "Point", "coordinates": [138.81667, -16.70833]}, "properties": {"date": "1802-12-08", "navire": "l'Investigator", "expedition": "Flinders", "table": "Matthew Flinders, A Voyage to Terra Australis, Londres, 1814, vol. 2", "alerte": "position tirée du récit publié ; Flinders ne la donne pas tous les jours"}}, {"type": "Feature", "geometry": {"type": "Point", "coordinates": [137.88333, -16.19167]}, "properties": {"date": "1802-12-11", "navire": "l'Investigator", "expedition": "Flinders", "table": "Matthew Flinders, A Voyage to Terra Australis, Londres, 1814, vol. 2", "alerte": "position tirée du récit publié ; Flinders ne la donne pas tous les jours"}}, {"type": "Feature", "geometry": {"type": "Point", "coordinates": [135.90833, -14.44139]}, "properties": {"date": "1803-01-02", "navire": "l'Investigator", "expedition": "Flinders", "table": "Matthew Flinders, A Voyage to Terra Australis, Londres, 1814, vol. 2", "alerte": "position tirée du récit publié ; Flinders ne la donne pas tous les jours"}}, {"type": "Feature", "geometry": {"type": "Point", "coordinates": [136.1, -14.08333]}, "properties": {"date": "1803-01-03", "navire": "l'Investigator", "expedition": "Flinders", "table": "Matthew Flinders, A Voyage to Terra Australis, Londres, 1814, vol. 2", "alerte": "position tirée du récit publié ; Flinders ne la donne pas tous les jours"}}, {"type": "Feature", "geometry": {"type": "Point", "coordinates": [137.05, -14.09194]}, "properties": {"date": "1803-01-10", "navire": "l'Investigator", "expedition": "Flinders", "table": "Matthew Flinders, A Voyage to Terra Australis, Londres, 1814, vol. 2", "alerte": "position tirée du récit publié ; Flinders ne la donne pas tous les jours"}}, {"type": "Feature", "geometry": {"type": "Point", "coordinates": [137.04167, -12.20833]}, "properties": {"date": "1803-02-11", "navire": "l'Investigator", "expedition": "Flinders", "table": "Matthew Flinders, A Voyage to Terra Australis, Londres, 1814, vol. 2", "alerte": "position tirée du récit publié ; Flinders ne la donne pas tous les jours"}}, {"type": "Feature", "geometry": {"type": "Point", "coordinates": [135.16667, -10.94444]}, "properties": {"date": "1803-03-07", "navire": "l'Investigator", "expedition": "Flinders", "table": "Matthew Flinders, A Voyage to Terra Australis, Londres, 1814, vol. 2", "alerte": "position tirée du récit publié ; Flinders ne la donne pas tous les jours"}}, {"type": "Feature", "geometry": {"type": "Point", "coordinates": [122.59167, -10.62278]}, "properties": {"date": "1803-04-11", "navire": "l'Investigator", "expedition": "Flinders", "table": "Matthew Flinders, A Voyage to Terra Australis, Londres, 1814, vol. 2", "alerte": "position tirée du récit publié ; Flinders ne la donne pas tous les jours"}}, {"type": "Feature", "geometry": {"type": "Point", "coordinates": [104.91667, -20.6]}, "properties": {"date": "1803-04-26", "navire": "l'Investigator", "expedition": "Flinders", "table": "Matthew Flinders, A Voyage to Terra Australis, Londres, 1814, vol. 2", "alerte": "position tirée du récit publié ; Flinders ne la donne pas tous les jours"}}, {"type": "Feature", "geometry": {"type": "Point", "coordinates": [143.13333, -40.41667]}, "properties": {"date": "1803-05-30", "navire": "l'Investigator", "expedition": "Flinders", "table": "Matthew Flinders, A Voyage to Terra Australis, Londres, 1814, vol. 2", "alerte": "position tirée du récit publié ; Flinders ne la donne pas tous les jours"}}, {"type": "Feature", "geometry": {"type": "Point", "coordinates": [150.73333, -37.21667]}, "properties": {"date": "1803-06-04", "navire": "l'Investigator", "expedition": "Flinders", "table": "Matthew Flinders, A Voyage to Terra Australis, Londres, 1814, vol. 2", "alerte": "position tirée du récit publié ; Flinders ne la donne pas tous les jours"}}, {"type": "Feature", "geometry": {"type": "Point", "coordinates": [151.2, -34.35]}, "properties": {"date": "1803-06-08", "navire": "l'Investigator", "expedition": "Flinders", "table": "Matthew Flinders, A Voyage to Terra Australis, Londres, 1814, vol. 2", "alerte": "position tirée du récit publié ; Flinders ne la donne pas tous les jours"}}]}